{
  "type": "FeatureCollection",
  "features": [
    {
      "type": "Feature",
      "properties": {
        "norad_id": 28899,
        "name": "INMARSAT 4-F2 (SOUTHPAN/PRN 122)",
        "group": "gnss",
        "lat": NaN,
        "lon": NaN,
        "alt_km": NaN,
        "timestamp": "2025-12-01T03:12:44.503350+00:00",
        "meta": {
          "OBJECT_NAME": "INMARSAT 4-F2 (SOUTHPAN/PRN 122)",
          "OBJECT_ID": "2005-044A",
          "EPOCH": "2025-11-30T14:31:33.105792",
          "MEAN_MOTION": 1.00271038,
          "ECCENTRICITY": 0.0003377,
          "INCLINATION": 4.835,
          "RA_OF_ASC_NODE": 43.6494,
          "ARG_OF_PERICENTER": 206.1893,
          "MEAN_ANOMALY": 181.2859,
          "EPHEMERIS_TYPE": 0,
          "CLASSIFICATION_TYPE": "U",
          "NORAD_CAT_ID": 28899,
          "ELEMENT_SET_NO": 999,
          "REV_AT_EPOCH": 7353,
          "BSTAR": 0,
          "MEAN_MOTION_DOT": -2.4e-06,
          "MEAN_MOTION_DDOT": 0
        }
      },
      "geometry": {
        "type": "Point",
        "coordinates": [
          NaN,
          NaN
        ]
      }
    },
    {
      "type": "Feature",
      "properties": {
        "norad_id": 37605,
        "name": "GSAT-8 (GAGAN/PRN 127)",
        "group": "gnss",
        "lat": NaN,
        "lon": NaN,
        "alt_km": NaN,
        "timestamp": "2025-12-01T03:12:44.503829+00:00",
        "meta": {
          "OBJECT_NAME": "GSAT-8 (GAGAN/PRN 127)",
          "OBJECT_ID": "2011-022A",
          "EPOCH": "2025-11-30T19:14:31.982784",
          "MEAN_MOTION": 1.00271954,
          "ECCENTRICITY": 0.0008849,
          "INCLINATION": 1.616,
          "RA_OF_ASC_NODE": 84.3262,
          "ARG_OF_PERICENTER": 176.3214,
          "MEAN_ANOMALY": 152.9899,
          "EPHEMERIS_TYPE": 0,
          "CLASSIFICATION_TYPE": "U",
          "NORAD_CAT_ID": 37605,
          "ELEMENT_SET_NO": 999,
          "REV_AT_EPOCH": 5122,
          "BSTAR": 0,
          "MEAN_MOTION_DOT": 1.06e-06,
          "MEAN_MOTION_DDOT": 0
        }
      },
      "geometry": {
        "type": "Point",
        "coordinates": [
          NaN,
          NaN
        ]
      }
    },
    {
      "type": "Feature",
      "properties": {
        "norad_id": 37951,
        "name": "LUCH 5A (SDCM/PRN 140)",
        "group": "gnss",
        "lat": NaN,
        "lon": NaN,
        "alt_km": NaN,
        "timestamp": "2025-12-01T03:12:44.504250+00:00",
        "meta": {
          "OBJECT_NAME": "LUCH 5A (SDCM/PRN 140)",
          "OBJECT_ID": "2011-074B",
          "EPOCH": "2025-11-30T14:38:09.973824",
          "MEAN_MOTION": 1.0027323,
          "ECCENTRICITY": 0.0005783,
          "INCLINATION": 8.2465,
          "RA_OF_ASC_NODE": 76.7646,
          "ARG_OF_PERICENTER": 171.9084,
          "MEAN_ANOMALY": 207.5733,
          "EPHEMERIS_TYPE": 0,
          "CLASSIFICATION_TYPE": "U",
          "NORAD_CAT_ID": 37951,
          "ELEMENT_SET_NO": 999,
          "REV_AT_EPOCH": 5106,
          "BSTAR": 0,
          "MEAN_MOTION_DOT": -2.8e-07,
          "MEAN_MOTION_DDOT": 0
        }
      },
      "geometry": {
        "type": "Point",
        "coordinates": [
          NaN,
          NaN
        ]
      }
    },
    {
      "type": "Feature",
      "properties": {
        "norad_id": 38652,
        "name": "SES-5 (EGNOS/PRN 136)",
        "group": "gnss",
        "lat": NaN,
        "lon": NaN,
        "alt_km": NaN,
        "timestamp": "2025-12-01T03:12:44.504648+00:00",
        "meta": {
          "OBJECT_NAME": "SES-5 (EGNOS/PRN 136)",
          "OBJECT_ID": "2012-036A",
          "EPOCH": "2025-11-30T15:34:42.060288",
          "MEAN_MOTION": 1.00271359,
          "ECCENTRICITY": 0.0001986,
          "INCLINATION": 0.0591,
          "RA_OF_ASC_NODE": 302.0882,
          "ARG_OF_PERICENTER": 303.658,
          "MEAN_ANOMALY": 62.6928,
          "EPHEMERIS_TYPE": 0,
          "CLASSIFICATION_TYPE": "U",
          "NORAD_CAT_ID": 38652,
          "ELEMENT_SET_NO": 999,
          "REV_AT_EPOCH": 4247,
          "BSTAR": 0,
          "MEAN_MOTION_DOT": 5.6e-07,
          "MEAN_MOTION_DDOT": 0
        }
      },
      "geometry": {
        "type": "Point",
        "coordinates": [
          NaN,
          NaN
        ]
      }
    },
    {
      "type": "Feature",
      "properties": {
        "norad_id": 38779,
        "name": "GSAT-10 (GAGAN/PRN 128)",
        "group": "gnss",
        "lat": NaN,
        "lon": NaN,
        "alt_km": NaN,
        "timestamp": "2025-12-01T03:12:44.505094+00:00",
        "meta": {
          "OBJECT_NAME": "GSAT-10 (GAGAN/PRN 128)",
          "OBJECT_ID": "2012-051B",
          "EPOCH": "2025-11-30T19:22:31.219392",
          "MEAN_MOTION": 1.00269602,
          "ECCENTRICITY": 0.0002717,
          "INCLINATION": 0.0389,
          "RA_OF_ASC_NODE": 261.6436,
          "ARG_OF_PERICENTER": 234.5139,
          "MEAN_ANOMALY": 307.3932,
          "EPHEMERIS_TYPE": 0,
          "CLASSIFICATION_TYPE": "U",
          "NORAD_CAT_ID": 38779,
          "ELEMENT_SET_NO": 999,
          "REV_AT_EPOCH": 4810,
          "BSTAR": 0,
          "MEAN_MOTION_DOT": -1.43e-06,
          "MEAN_MOTION_DDOT": 0
        }
      },
      "geometry": {
        "type": "Point",
        "coordinates": [
          NaN,
          NaN
        ]
      }
    },
    {
      "type": "Feature",
      "properties": {
        "norad_id": 38977,
        "name": "LUCH 5B (SDCM/PRN 125)",
        "group": "gnss",
        "lat": NaN,
        "lon": NaN,
        "alt_km": NaN,
        "timestamp": "2025-12-01T03:12:44.505507+00:00",
        "meta": {
          "OBJECT_NAME": "LUCH 5B (SDCM/PRN 125)",
          "OBJECT_ID": "2012-061A",
          "EPOCH": "2025-11-30T00:04:03.552096",
          "MEAN_MOTION": 1.00269398,
          "ECCENTRICITY": 0.00075099,
          "INCLINATION": 10.0516,
          "RA_OF_ASC_NODE": 51.8208,
          "ARG_OF_PERICENTER": 187.2602,
          "MEAN_ANOMALY": 174.7304,
          "EPHEMERIS_TYPE": 0,
          "CLASSIFICATION_TYPE": "U",
          "NORAD_CAT_ID": 38977,
          "ELEMENT_SET_NO": 999,
          "REV_AT_EPOCH": 4761,
          "BSTAR": 0,
          "MEAN_MOTION_DOT": -1.19e-06,
          "MEAN_MOTION_DDOT": 0
        }
      },
      "geometry": {
        "type": "Point",
        "coordinates": [
          NaN,
          NaN
        ]
      }
    },
    {
      "type": "Feature",
      "properties": {
        "norad_id": 39199,
        "name": "IRNSS-1A",
        "group": "gnss",
        "lat": NaN,
        "lon": NaN,
        "alt_km": NaN,
        "timestamp": "2025-12-01T03:12:44.505954+00:00",
        "meta": {
          "OBJECT_NAME": "IRNSS-1A",
          "OBJECT_ID": "2013-034A",
          "EPOCH": "2025-11-29T20:16:50.456352",
          "MEAN_MOTION": 1.00278191,
          "ECCENTRICITY": 0.00217208,
          "INCLINATION": 35.2795,
          "RA_OF_ASC_NODE": 66.7394,
          "ARG_OF_PERICENTER": 185.4975,
          "MEAN_ANOMALY": 176.0627,
          "EPHEMERIS_TYPE": 0,
          "CLASSIFICATION_TYPE": "U",
          "NORAD_CAT_ID": 39199,
          "ELEMENT_SET_NO": 999,
          "REV_AT_EPOCH": 4537,
          "BSTAR": 0,
          "MEAN_MOTION_DOT": 8.1e-07,
          "MEAN_MOTION_DDOT": 0
        }
      },
      "geometry": {
        "type": "Point",
        "coordinates": [
          NaN,
          NaN
        ]
      }
    },
    {
      "type": "Feature",
      "properties": {
        "norad_id": 39617,
        "name": "ASTRA 5B (EGNOS/PRN 123)",
        "group": "gnss",
        "lat": NaN,
        "lon": NaN,
        "alt_km": NaN,
        "timestamp": "2025-12-01T03:12:44.506361+00:00",
        "meta": {
          "OBJECT_NAME": "ASTRA 5B (EGNOS/PRN 123)",
          "OBJECT_ID": "2014-011B",
          "EPOCH": "2025-11-30T19:05:32.845056",
          "MEAN_MOTION": 1.00272815,
          "ECCENTRICITY": 0.0004659,
          "INCLINATION": 0.0798,
          "RA_OF_ASC_NODE": 53.2979,
          "ARG_OF_PERICENTER": 209.9014,
          "MEAN_ANOMALY": 116.632,
          "EPHEMERIS_TYPE": 0,
          "CLASSIFICATION_TYPE": "U",
          "NORAD_CAT_ID": 39617,
          "ELEMENT_SET_NO": 999,
          "REV_AT_EPOCH": 4267,
          "BSTAR": 0,
          "MEAN_MOTION_DOT": 1.59e-06,
          "MEAN_MOTION_DDOT": 0
        }
      },
      "geometry": {
        "type": "Point",
        "coordinates": [
          NaN,
          NaN
        ]
      }
    }
  ]
}