INMARSAT 4-F2           
1 28899U 05044A   25334.60524428 -.00000240  00000+0  00000+0 0  9992
2 28899   4.8350  43.6494 0003377 206.1893 181.2859  1.00271038 73531
GSAT-8                  
1 37605U 11022A   25334.80175906  .00000106  00000+0  00000+0 0  9995
2 37605   1.6160  84.3262 0008849 176.3214 152.9899  1.00271954 51227
LUCH-5A                 
1 37951U 11074B   25334.60983766 -.00000028  00000+0  00000+0 0  9999
2 37951   8.2465  76.7646 0005783 171.9084 207.5733  1.00273230 51068
SES-5                   
1 38652U 12036A   25334.64909792  .00000056  00000+0  00000+0 0  9998
2 38652   0.0591 302.0882 0001986 303.6580  62.6928  1.00271359 42471
GSAT-10                 
1 38779U 12051B   25334.80730578 -.00000143  00000+0  00000+0 0  9995
2 38779   0.0389 261.6436 0002717 234.5139 307.3932  1.00269602 48104
LUCH-5B                 
1 38977U 12061A   25334.00281889 -.00000119  00000+0  00000+0 0  9997
2 38977  10.0516  51.8208 0007509 187.2602 174.7304  1.00269398 47612
IRNSS-1A                
1 39199U 13034A   25333.84502843  .00000081  00000+0  00000+0 0  9999
2 39199  35.2795  66.7394 0021720 185.4975 176.0627  1.00278191 45377
ASTRA 5B                
1 39617U 14011B   25334.79551904  .00000159  00000+0  00000+0 0  9993
2 39617   0.0798  53.2979 0004659 209.9014 116.6320  1.00272815 42670
